CCSDS_OMM_VERS = 2.0
CREATION_DATE  = 
ORIGINATOR     = 

OBJECT_NAME    = H-2A R/B
OBJECT_ID      = 2006-002B
CENTER_NAME    = EARTH
REF_FRAME      = TEME
TIME_SYSTEM    = UTC
MEAN_ELEMENT_THEORY = SGP/SGP4

EPOCH          = 2026-03-09T09:52:09.346656
MEAN_MOTION    = 15.16413860
ECCENTRICITY   = .005192
INCLINATION    = 98.2411
RA_OF_ASC_NODE = 215.4104
ARG_OF_PERICENTER = 241.9592
MEAN_ANOMALY   = 117.6382

EPHEMERIS_TYPE = 0
CLASSIFICATION_TYPE = U
NORAD_CAT_ID   = 28932
ELEMENT_SET_NO = 999
REV_AT_EPOCH   = 9439
BSTAR          = .60106E-3
MEAN_MOTION_DOT = .12018E-3
MEAN_MOTION_DDOT = 0

CCSDS_OMM_VERS = 2.0
CREATION_DATE  = 
ORIGINATOR     = 

OBJECT_NAME    = RESURS-DK 1
OBJECT_ID      = 2006-021A
CENTER_NAME    = EARTH
REF_FRAME      = TEME
TIME_SYSTEM    = UTC
MEAN_ELEMENT_THEORY = SGP/SGP4

EPOCH          = 2026-03-09T12:51:04.684032
MEAN_MOTION    = 15.12742992
ECCENTRICITY   = .0001916
INCLINATION    = 69.9316
RA_OF_ASC_NODE = 237.4217
ARG_OF_PERICENTER = 162.9567
MEAN_ANOMALY   = 197.1664

EPHEMERIS_TYPE = 0
CLASSIFICATION_TYPE = U
NORAD_CAT_ID   = 29228
ELEMENT_SET_NO = 999
REV_AT_EPOCH   = 8750
BSTAR          = .23721E-3
MEAN_MOTION_DOT = .4062E-4
MEAN_MOTION_DDOT = 0

CCSDS_OMM_VERS = 2.0
CREATION_DATE  = 
ORIGINATOR     = 

OBJECT_NAME    = CZ-4B R/B
OBJECT_ID      = 2006-046C
CENTER_NAME    = EARTH
REF_FRAME      = TEME
TIME_SYSTEM    = UTC
MEAN_ELEMENT_THEORY = SGP/SGP4

EPOCH          = 2026-03-09T13:02:16.768896
MEAN_MOTION    = 15.16902328
ECCENTRICITY   = .0031724
INCLINATION    = 97.5596
RA_OF_ASC_NODE = 113.4527
ARG_OF_PERICENTER = 267.8706
MEAN_ANOMALY   = 91.8894

EPHEMERIS_TYPE = 0
CLASSIFICATION_TYPE = U
NORAD_CAT_ID   = 29507
ELEMENT_SET_NO = 999
REV_AT_EPOCH   = 6002
BSTAR          = .30275E-3
MEAN_MOTION_DOT = .5972E-4
MEAN_MOTION_DDOT = 0

CCSDS_OMM_VERS = 2.0
CREATION_DATE  = 
ORIGINATOR     = 

OBJECT_NAME    = CZ-2C R/B
OBJECT_ID      = 2007-010B
CENTER_NAME    = EARTH
REF_FRAME      = TEME
TIME_SYSTEM    = UTC
MEAN_ELEMENT_THEORY = SGP/SGP4

EPOCH          = 2026-03-09T07:16:35.658336
MEAN_MOTION    = 14.20245990
ECCENTRICITY   = .0057931
INCLINATION    = 98.3979
RA_OF_ASC_NODE = 181.6013
ARG_OF_PERICENTER = 295.7457
MEAN_ANOMALY   = 63.7748

EPHEMERIS_TYPE = 0
CLASSIFICATION_TYPE = U
NORAD_CAT_ID   = 31114
ELEMENT_SET_NO = 999
REV_AT_EPOCH   = 97966
BSTAR          = .93053E-4
MEAN_MOTION_DOT = .161E-5
MEAN_MOTION_DDOT = 0

CCSDS_OMM_VERS = 2.0
CREATION_DATE  = 
ORIGINATOR     = 

OBJECT_NAME    = COSMO-SKYMED 1
OBJECT_ID      = 2007-023A
CENTER_NAME    = EARTH
REF_FRAME      = TEME
TIME_SYSTEM    = UTC
MEAN_ELEMENT_THEORY = SGP/SGP4

EPOCH          = 2026-03-09T12:44:16.853568
MEAN_MOTION    = 14.96532459
ECCENTRICITY   = .0001235
INCLINATION    = 97.8871
RA_OF_ASC_NODE = 259.5611
ARG_OF_PERICENTER = 100.7828
MEAN_ANOMALY   = 259.3532

EPHEMERIS_TYPE = 0
CLASSIFICATION_TYPE = U
NORAD_CAT_ID   = 31598
ELEMENT_SET_NO = 999
REV_AT_EPOCH   = 1488
BSTAR          = .37891E-3
MEAN_MOTION_DOT = .4249E-4
MEAN_MOTION_DDOT = 0

CCSDS_OMM_VERS = 2.0
CREATION_DATE  = 
ORIGINATOR     = 

OBJECT_NAME    = COSMOS 2428
OBJECT_ID      = 2007-029A
CENTER_NAME    = EARTH
REF_FRAME      = TEME
TIME_SYSTEM    = UTC
MEAN_ELEMENT_THEORY = SGP/SGP4

EPOCH          = 2026-03-09T12:49:59.926368
MEAN_MOTION    = 14.12946096
ECCENTRICITY   = .0009128
INCLINATION    = 70.9432
RA_OF_ASC_NODE = 203.6679
ARG_OF_PERICENTER = 277.2012
MEAN_ANOMALY   = 82.8071

EPHEMERIS_TYPE = 0
CLASSIFICATION_TYPE = U
NORAD_CAT_ID   = 31792
ELEMENT_SET_NO = 999
REV_AT_EPOCH   = 96407
BSTAR          = .60246E-4
MEAN_MOTION_DOT = .64E-6
MEAN_MOTION_DDOT = 0

CCSDS_OMM_VERS = 2.0
CREATION_DATE  = 
ORIGINATOR     = 

OBJECT_NAME    = SL-16 R/B
OBJECT_ID      = 2007-029B
CENTER_NAME    = EARTH
REF_FRAME      = TEME
TIME_SYSTEM    = UTC
MEAN_ELEMENT_THEORY = SGP/SGP4

EPOCH          = 2026-03-09T13:39:57.146688
MEAN_MOTION    = 14.14833326
ECCENTRICITY   = .000231
INCLINATION    = 70.9759
RA_OF_ASC_NODE = 172.6377
ARG_OF_PERICENTER = 276.1523
MEAN_ANOMALY   = 174.1441

EPHEMERIS_TYPE = 0
CLASSIFICATION_TYPE = U
NORAD_CAT_ID   = 31793
ELEMENT_SET_NO = 999
REV_AT_EPOCH   = 96535
BSTAR          = .46383E-4
MEAN_MOTION_DOT = .42E-6
MEAN_MOTION_DDOT = 0

CCSDS_OMM_VERS = 2.0
CREATION_DATE  = 
ORIGINATOR     = 

OBJECT_NAME    = KORONAS-FOTON
OBJECT_ID      = 2009-003A
CENTER_NAME    = EARTH
REF_FRAME      = TEME
TIME_SYSTEM    = UTC
MEAN_ELEMENT_THEORY = SGP/SGP4

EPOCH          = 2026-03-08T15:53:21.472512
MEAN_MOTION    = 15.43301564
ECCENTRICITY   = .00112609
INCLINATION    = 82.4273
RA_OF_ASC_NODE = 276.9464
ARG_OF_PERICENTER = 152.8275
MEAN_ANOMALY   = 207.3564

EPHEMERIS_TYPE = 0
CLASSIFICATION_TYPE = U
NORAD_CAT_ID   = 33504
ELEMENT_SET_NO = 999
REV_AT_EPOCH   = 94558
BSTAR          = .37366555E-3
MEAN_MOTION_DOT = .16717E-3
MEAN_MOTION_DDOT = 0

CCSDS_OMM_VERS = 2.0
CREATION_DATE  = 
ORIGINATOR     = 

OBJECT_NAME    = CZ-2C R/B
OBJECT_ID      = 2011-030B
CENTER_NAME    = EARTH
REF_FRAME      = TEME
TIME_SYSTEM    = UTC
MEAN_ELEMENT_THEORY = SGP/SGP4

EPOCH          = 2026-03-09T11:41:23.013024
MEAN_MOTION    = 14.81221776
ECCENTRICITY   = .0052415
INCLINATION    = 97.8549
RA_OF_ASC_NODE = 25.7543
ARG_OF_PERICENTER = 352.7470
MEAN_ANOMALY   = 123.0453

EPHEMERIS_TYPE = 0
CLASSIFICATION_TYPE = U
NORAD_CAT_ID   = 37731
ELEMENT_SET_NO = 999
REV_AT_EPOCH   = 79006
BSTAR          = .2815E-3
MEAN_MOTION_DOT = .2189E-4
MEAN_MOTION_DDOT = 0

CCSDS_OMM_VERS = 2.0
CREATION_DATE  = 
ORIGINATOR     = 

OBJECT_NAME    = H-2A R/B
OBJECT_ID      = 2012-025E
CENTER_NAME    = EARTH
REF_FRAME      = TEME
TIME_SYSTEM    = UTC
MEAN_ELEMENT_THEORY = SGP/SGP4

EPOCH          = 2026-03-09T11:03:41.961312
MEAN_MOTION    = 14.95167710
ECCENTRICITY   = .0043333
INCLINATION    = 98.4741
RA_OF_ASC_NODE = 35.4890
ARG_OF_PERICENTER = 315.2630
MEAN_ANOMALY   = 44.5096

EPHEMERIS_TYPE = 0
CLASSIFICATION_TYPE = U
NORAD_CAT_ID   = 38341
ELEMENT_SET_NO = 999
REV_AT_EPOCH   = 74818
BSTAR          = .44859E-3
MEAN_MOTION_DOT = .495E-4
MEAN_MOTION_DDOT = 0

CCSDS_OMM_VERS = 2.0
CREATION_DATE  = 
ORIGINATOR     = 

OBJECT_NAME    = SHIJIAN-16 (SJ-16)
OBJECT_ID      = 2013-057A
CENTER_NAME    = EARTH
REF_FRAME      = TEME
TIME_SYSTEM    = UTC
MEAN_ELEMENT_THEORY = SGP/SGP4

EPOCH          = 2026-03-09T11:52:44.647680
MEAN_MOTION    = 14.92344372
ECCENTRICITY   = .0015427
INCLINATION    = 74.9733
RA_OF_ASC_NODE = 185.4561
ARG_OF_PERICENTER = 113.0257
MEAN_ANOMALY   = 247.2560

EPHEMERIS_TYPE = 0
CLASSIFICATION_TYPE = U
NORAD_CAT_ID   = 39358
ELEMENT_SET_NO = 999
REV_AT_EPOCH   = 67147
BSTAR          = .16041E-3
MEAN_MOTION_DOT = .1615E-4
MEAN_MOTION_DDOT = 0

CCSDS_OMM_VERS = 2.0
CREATION_DATE  = 
ORIGINATOR     = 

OBJECT_NAME    = SL-4 R/B
OBJECT_ID      = 2014-021B
CENTER_NAME    = EARTH
REF_FRAME      = TEME
TIME_SYSTEM    = UTC
MEAN_ELEMENT_THEORY = SGP/SGP4

EPOCH          = 2026-03-08T21:57:13.895424
MEAN_MOTION    = 15.39151766
ECCENTRICITY   = .00976178
INCLINATION    = 51.6074
RA_OF_ASC_NODE = 341.0593
ARG_OF_PERICENTER = 100.2042
MEAN_ANOMALY   = 260.9968

EPHEMERIS_TYPE = 0
CLASSIFICATION_TYPE = U
NORAD_CAT_ID   = 39679
ELEMENT_SET_NO = 999
REV_AT_EPOCH   = 65615
BSTAR          = .42012505E-3
MEAN_MOTION_DOT = .19164E-3
MEAN_MOTION_DDOT = 0

