H-2A R/B                
1 28932U 06002B   26068.41121929  .00012018  00000+0  60106-3 0  9990
2 28932  98.2411 215.4104 0051920 241.9592 117.6382 15.16413860 94395
RESURS-DK 1             
1 29228U 06021A   26068.53547088  .00004062  00000+0  23721-3 0  9993
2 29228  69.9316 237.4217 0001916 162.9567 197.1664 15.12742992 87504
CZ-4B R/B               
1 29507U 06046C   26068.54324964  .00005972  00000+0  30275-3 0  9990
2 29507  97.5596 113.4527 0031724 267.8706  91.8894 15.16902328 60026
CZ-2C R/B               
1 31114U 07010B   26068.30319049  .00000161  00000+0  93053-4 0  9990
2 31114  98.3979 181.6013 0057931 295.7457  63.7748 14.20245990979669
COSMO-SKYMED 1          
1 31598U 07023A   26068.53075062  .00004249  00000+0  37891-3 0  9997
2 31598  97.8871 259.5611 0001235 100.7828 259.3532 14.96532459 14882
COSMOS 2428             
1 31792U 07029A   26068.53472137  .00000064  00000+0  60246-4 0  9995
2 31792  70.9432 203.6679 0009128 277.2012  82.8071 14.12946096964077
SL-16 R/B               
1 31793U 07029B   26068.56941142  .00000042  00000+0  46383-4 0  9998
2 31793  70.9759 172.6377 0002310 276.1523 174.1441 14.14833326965352
KORONAS-FOTON           
1 33504U 09003A   26067.66205408  .00016717  00000+0  37367-3 0  9999
2 33504  82.4273 276.9464 0011260 152.8275 207.3564 15.43301564945581
CZ-2C R/B               
1 37731U 11030B   26068.48707191  .00002189  00000+0  28150-3 0  9993
2 37731  97.8549  25.7543 0052415 352.7470 123.0453 14.81221776790065
H-2A R/B                
1 38341U 12025E   26068.46090233  .00004950  00000+0  44859-3 0  9998
2 38341  98.4741  35.4890 0043333 315.2630  44.5096 14.95167710748186
SHIJIAN-16 (SJ-16)      
1 39358U 13057A   26068.49496120  .00001615  00000+0  16041-3 0  9998
2 39358  74.9733 185.4561 0015427 113.0257 247.2560 14.92344372671471
SL-4 R/B                
1 39679U 14021B   26067.91474416  .00019164  00000+0  42013-3 0  9992
2 39679  51.6074 341.0593 0097617 100.2042 260.9968 15.39151766656150
